CCSDS_OMM_VERS = 2.0
CREATION_DATE  = 
ORIGINATOR     = 

OBJECT_NAME    = UNKNOWN
OBJECT_ID      = 
CENTER_NAME    = EARTH
REF_FRAME      = TEME
TIME_SYSTEM    = UTC
MEAN_ELEMENT_THEORY = SGP/SGP4

EPOCH          = 2025-12-12T23:42:50.899104
MEAN_MOTION    = 14.64392185
ECCENTRICITY   = .0104438
INCLINATION    = 98.6727
RA_OF_ASC_NODE = 170.5846
ARG_OF_PERICENTER = 267.1034
MEAN_ANOMALY   = 247.1988

EPHEMERIS_TYPE = 0
CLASSIFICATION_TYPE = U
NORAD_CAT_ID   = 87706
ELEMENT_SET_NO = 999
REV_AT_EPOCH   = 57855
BSTAR          = .12218E-2
MEAN_MOTION_DOT = .694E-4
MEAN_MOTION_DDOT = 0

CCSDS_OMM_VERS = 2.0
CREATION_DATE  = 
ORIGINATOR     = 

OBJECT_NAME    = UNKNOWN
OBJECT_ID      = 
CENTER_NAME    = EARTH
REF_FRAME      = TEME
TIME_SYSTEM    = UTC
MEAN_ELEMENT_THEORY = SGP/SGP4

EPOCH          = 2025-12-13T11:21:45.879552
MEAN_MOTION    = 14.97151648
ECCENTRICITY   = .0019084
INCLINATION    = 82.8664
RA_OF_ASC_NODE = 255.1967
ARG_OF_PERICENTER = 52.2524
MEAN_ANOMALY   = 308.0425

EPHEMERIS_TYPE = 0
CLASSIFICATION_TYPE = U
NORAD_CAT_ID   = 87725
ELEMENT_SET_NO = 999
REV_AT_EPOCH   = 63403
BSTAR          = .95428E-2
MEAN_MOTION_DOT = .112258E-2
MEAN_MOTION_DDOT = 0

CCSDS_OMM_VERS = 2.0
CREATION_DATE  = 
ORIGINATOR     = 

OBJECT_NAME    = UNKNOWN
OBJECT_ID      = 
CENTER_NAME    = EARTH
REF_FRAME      = TEME
TIME_SYSTEM    = UTC
MEAN_ELEMENT_THEORY = SGP/SGP4

EPOCH          = 2025-12-12T10:39:33.146496
MEAN_MOTION    = 13.74505597
ECCENTRICITY   = .00303
INCLINATION    = 82.9452
RA_OF_ASC_NODE = 234.3191
ARG_OF_PERICENTER = 7.1465
MEAN_ANOMALY   = 353.0116

EPHEMERIS_TYPE = 0
CLASSIFICATION_TYPE = U
NORAD_CAT_ID   = 87730
ELEMENT_SET_NO = 999
REV_AT_EPOCH   = 58529
BSTAR          = .11787E-3
MEAN_MOTION_DOT = .127E-5
MEAN_MOTION_DDOT = 0

CCSDS_OMM_VERS = 2.0
CREATION_DATE  = 
ORIGINATOR     = 

OBJECT_NAME    = UNKNOWN
OBJECT_ID      = 
CENTER_NAME    = EARTH
REF_FRAME      = TEME
TIME_SYSTEM    = UTC
MEAN_ELEMENT_THEORY = SGP/SGP4

EPOCH          = 2025-12-12T22:06:33.639552
MEAN_MOTION    = 13.72340917
ECCENTRICITY   = .0132944
INCLINATION    = 99.3743
RA_OF_ASC_NODE = 218.7158
ARG_OF_PERICENTER = 188.9253
MEAN_ANOMALY   = 170.9529

EPHEMERIS_TYPE = 0
CLASSIFICATION_TYPE = U
NORAD_CAT_ID   = 87737
ELEMENT_SET_NO = 999
REV_AT_EPOCH   = 60388
BSTAR          = .10132E-3
MEAN_MOTION_DOT = .55E-6
MEAN_MOTION_DDOT = 0

CCSDS_OMM_VERS = 2.0
CREATION_DATE  = 
ORIGINATOR     = 

OBJECT_NAME    = UNKNOWN
OBJECT_ID      = 
CENTER_NAME    = EARTH
REF_FRAME      = TEME
TIME_SYSTEM    = UTC
MEAN_ELEMENT_THEORY = SGP/SGP4

EPOCH          = 2025-12-11T05:37:51.428064
MEAN_MOTION    = 14.34805379
ECCENTRICITY   = .0360224
INCLINATION    = 65.6732
RA_OF_ASC_NODE = 166.6082
ARG_OF_PERICENTER = 77.6247
MEAN_ANOMALY   = 96.7268

EPHEMERIS_TYPE = 0
CLASSIFICATION_TYPE = U
NORAD_CAT_ID   = 87764
ELEMENT_SET_NO = 999
REV_AT_EPOCH   = 61890
BSTAR          = .22707E-2
MEAN_MOTION_DOT = .13447E-3
MEAN_MOTION_DDOT = 0

CCSDS_OMM_VERS = 2.0
CREATION_DATE  = 
ORIGINATOR     = 

OBJECT_NAME    = UNKNOWN
OBJECT_ID      = 
CENTER_NAME    = EARTH
REF_FRAME      = TEME
TIME_SYSTEM    = UTC
MEAN_ELEMENT_THEORY = SGP/SGP4

EPOCH          = 2025-12-10T19:03:21.640608
MEAN_MOTION    = 13.19516191
ECCENTRICITY   = .0119796
INCLINATION    = 100.7428
RA_OF_ASC_NODE = 180.9170
ARG_OF_PERICENTER = 6.7749
MEAN_ANOMALY   = 353.4951

EPHEMERIS_TYPE = 0
CLASSIFICATION_TYPE = U
NORAD_CAT_ID   = 87771
ELEMENT_SET_NO = 999
REV_AT_EPOCH   = 53483
BSTAR          = .47224E-3
MEAN_MOTION_DOT = .149E-5
MEAN_MOTION_DDOT = 0

CCSDS_OMM_VERS = 2.0
CREATION_DATE  = 
ORIGINATOR     = 

OBJECT_NAME    = UNKNOWN
OBJECT_ID      = 
CENTER_NAME    = EARTH
REF_FRAME      = TEME
TIME_SYSTEM    = UTC
MEAN_ELEMENT_THEORY = SGP/SGP4

EPOCH          = 2025-12-12T22:04:47.419392
MEAN_MOTION    = 13.00415721
ECCENTRICITY   = .0049899
INCLINATION    = 102.3403
RA_OF_ASC_NODE = 218.5408
ARG_OF_PERICENTER = 248.7479
MEAN_ANOMALY   = 110.8284

EPHEMERIS_TYPE = 0
CLASSIFICATION_TYPE = U
NORAD_CAT_ID   = 87782
ELEMENT_SET_NO = 999
REV_AT_EPOCH   = 56801
BSTAR          = .11517E-1
MEAN_MOTION_DOT = .3454E-4
MEAN_MOTION_DDOT = 0

CCSDS_OMM_VERS = 2.0
CREATION_DATE  = 
ORIGINATOR     = 

OBJECT_NAME    = UNKNOWN
OBJECT_ID      = 
CENTER_NAME    = EARTH
REF_FRAME      = TEME
TIME_SYSTEM    = UTC
MEAN_ELEMENT_THEORY = SGP/SGP4

EPOCH          = 2025-12-13T03:27:17.183232
MEAN_MOTION    = 13.16548050
ECCENTRICITY   = .0231272
INCLINATION    = 99.6629
RA_OF_ASC_NODE = 101.2591
ARG_OF_PERICENTER = 3.4413
MEAN_ANOMALY   = 356.8231

EPHEMERIS_TYPE = 0
CLASSIFICATION_TYPE = U
NORAD_CAT_ID   = 87843
ELEMENT_SET_NO = 999
REV_AT_EPOCH   = 56421
BSTAR          = .66071E-2
MEAN_MOTION_DOT = .2857E-4
MEAN_MOTION_DDOT = 0

CCSDS_OMM_VERS = 2.0
CREATION_DATE  = 
ORIGINATOR     = 

OBJECT_NAME    = UNKNOWN
OBJECT_ID      = 
CENTER_NAME    = EARTH
REF_FRAME      = TEME
TIME_SYSTEM    = UTC
MEAN_ELEMENT_THEORY = SGP/SGP4

EPOCH          = 2025-12-08T02:34:09.824160
MEAN_MOTION    = 12.88910939
ECCENTRICITY   = .0576132
INCLINATION    = 98.8572
RA_OF_ASC_NODE = 300.5142
ARG_OF_PERICENTER = 264.4497
MEAN_ANOMALY   = 89.0666

EPHEMERIS_TYPE = 0
CLASSIFICATION_TYPE = U
NORAD_CAT_ID   = 87845
ELEMENT_SET_NO = 999
REV_AT_EPOCH   = 56461
BSTAR          = .34494E-2
MEAN_MOTION_DOT = .1814E-4
MEAN_MOTION_DDOT = 0

CCSDS_OMM_VERS = 2.0
CREATION_DATE  = 
ORIGINATOR     = 

OBJECT_NAME    = UNKNOWN
OBJECT_ID      = 
CENTER_NAME    = EARTH
REF_FRAME      = TEME
TIME_SYSTEM    = UTC
MEAN_ELEMENT_THEORY = SGP/SGP4

EPOCH          = 2025-12-11T02:37:21.710784
MEAN_MOTION    = 14.40690629
ECCENTRICITY   = .0035227
INCLINATION    = 99.1579
RA_OF_ASC_NODE = 104.4842
ARG_OF_PERICENTER = 270.2487
MEAN_ANOMALY   = 89.4662

EPHEMERIS_TYPE = 0
CLASSIFICATION_TYPE = U
NORAD_CAT_ID   = 87878
ELEMENT_SET_NO = 999
REV_AT_EPOCH   = 61106
BSTAR          = .19162E-2
MEAN_MOTION_DOT = .612E-4
MEAN_MOTION_DDOT = 0

CCSDS_OMM_VERS = 2.0
CREATION_DATE  = 
ORIGINATOR     = 

OBJECT_NAME    = UNKNOWN
OBJECT_ID      = 
CENTER_NAME    = EARTH
REF_FRAME      = TEME
TIME_SYSTEM    = UTC
MEAN_ELEMENT_THEORY = SGP/SGP4

EPOCH          = 2025-12-08T00:30:31.289472
MEAN_MOTION    = 14.05981151
ECCENTRICITY   = .0154867
INCLINATION    = 98.7350
RA_OF_ASC_NODE = 86.0325
ARG_OF_PERICENTER = 81.7201
MEAN_ANOMALY   = 280.1495

EPHEMERIS_TYPE = 0
CLASSIFICATION_TYPE = U
NORAD_CAT_ID   = 87884
ELEMENT_SET_NO = 999
REV_AT_EPOCH   = 61770
BSTAR          = .3294E-3
MEAN_MOTION_DOT = .561E-5
MEAN_MOTION_DDOT = 0

CCSDS_OMM_VERS = 2.0
CREATION_DATE  = 
ORIGINATOR     = 

OBJECT_NAME    = UNKNOWN
OBJECT_ID      = 
CENTER_NAME    = EARTH
REF_FRAME      = TEME
TIME_SYSTEM    = UTC
MEAN_ELEMENT_THEORY = SGP/SGP4

EPOCH          = 2025-12-08T02:35:47.869152
MEAN_MOTION    = 12.35048234
ECCENTRICITY   = .0884471
INCLINATION    = 28.6246
RA_OF_ASC_NODE = 279.5590
ARG_OF_PERICENTER = 7.2268
MEAN_ANOMALY   = 354.0134

EPHEMERIS_TYPE = 0
CLASSIFICATION_TYPE = U
NORAD_CAT_ID   = 87991
ELEMENT_SET_NO = 999
REV_AT_EPOCH   = 52242
BSTAR          = .10705E-1
MEAN_MOTION_DOT = .5264E-4
MEAN_MOTION_DDOT = 0

